SL-3 R/B                
1 13403U 82079B   26034.60258084  .00005715  00000+0  23094-3 0  9993
2 13403  81.1435 233.3152 0024238 282.3953  77.4568 15.24304415372508
SL-14 R/B               
1 13553U 82092B   26034.45169876  .00000643  00000+0  69398-4 0  9990
2 13553  82.5697 173.4132 0021617  57.2821   4.9955 14.86625960323848
SL-3 R/B                
1 13819U 83010B   26034.51587791  .00014700  00000+0  30772-3 0  9995
2 13819  81.1014  44.1085 0017532 160.5521 199.6396 15.45145141352665
SL-3 R/B                
1 14208U 83075B   26034.46395587  .00013131  00000+0  35620-3 0  9997
2 14208  97.6122  37.7749 0021901 357.9340   2.1809 15.37512035324893
COSMOS 1536             
1 14699U 84013A   26034.30537619  .00008297  00000+0  34677-3 0  9999
2 14699  82.5478 142.0083 0015252  47.9462 312.3069 15.23351625267383
SL-14 R/B               
1 14820U 84027B   26034.35065896  .00000513  00000+0  55818-4 0  9992
2 14820  82.5408 277.2248 0019548  87.3646 272.9808 14.85941923242535
SL-8 R/B                
1 15483U 85006B   26034.58543574  .00000309  00000+0  11109-3 0  9992
2 15483  74.0475 323.9015 0019601 248.0951 285.1513 14.37765058149127
SL-12 R/B(2)            
1 15772U 85042D   26034.50795349  .00000085  00000+0  59511-4 0  9995
2 15772  71.1083 159.9427 0035267 182.5646 248.4146 14.21971951109533
SL-14 R/B               
1 15945U 85069B   26034.48047282  .00000538  00000+0  58167-4 0  9998
2 15945  82.5239  57.1090 0017530 308.9484  51.0169 14.86391777167750
SL-16 R/B               
1 16182U 85097B   26034.52711626  .00000176  00000+0  11244-3 0  9990
2 16182  71.0012 212.4716 0009372 299.8218 119.0705 14.16595301 82394
SL-14 R/B               
1 16496U 86006B   26034.66841403  .00000914  00000+0  94387-4 0  9991
2 16496  82.5276 291.7577 0077389  26.5518 333.9629 14.86765948144155
COSMOS 1743             
1 16719U 86034A   26034.58580927  .00038107  00000+0  54444-3 0  9996
2 16719  82.5336 109.5515 0005277  65.7981 294.3825 15.56059484174941
