CCSDS_OMM_VERS = 2.0
CREATION_DATE  = 
ORIGINATOR     = 

OBJECT_NAME    = SL-3 R/B
OBJECT_ID      = 1982-079B
CENTER_NAME    = EARTH
REF_FRAME      = TEME
TIME_SYSTEM    = UTC
MEAN_ELEMENT_THEORY = SGP/SGP4

EPOCH          = 2026-02-03T14:27:42.984576
MEAN_MOTION    = 15.24304415
ECCENTRICITY   = .00242383
INCLINATION    = 81.1435
RA_OF_ASC_NODE = 233.3152
ARG_OF_PERICENTER = 282.3953
MEAN_ANOMALY   = 77.4568

EPHEMERIS_TYPE = 0
CLASSIFICATION_TYPE = U
NORAD_CAT_ID   = 13403
ELEMENT_SET_NO = 999
REV_AT_EPOCH   = 37250
BSTAR          = .23094409E-3
MEAN_MOTION_DOT = .5715E-4
MEAN_MOTION_DDOT = 0

CCSDS_OMM_VERS = 2.0
CREATION_DATE  = 
ORIGINATOR     = 

OBJECT_NAME    = SL-14 R/B
OBJECT_ID      = 1982-092B
CENTER_NAME    = EARTH
REF_FRAME      = TEME
TIME_SYSTEM    = UTC
MEAN_ELEMENT_THEORY = SGP/SGP4

EPOCH          = 2026-02-03T10:50:26.772864
MEAN_MOTION    = 14.86625960
ECCENTRICITY   = .00216173
INCLINATION    = 82.5697
RA_OF_ASC_NODE = 173.4132
ARG_OF_PERICENTER = 57.2821
MEAN_ANOMALY   = 4.9955

EPHEMERIS_TYPE = 0
CLASSIFICATION_TYPE = U
NORAD_CAT_ID   = 13553
ELEMENT_SET_NO = 999
REV_AT_EPOCH   = 32384
BSTAR          = .69398281E-4
MEAN_MOTION_DOT = .643E-5
MEAN_MOTION_DDOT = 0

CCSDS_OMM_VERS = 2.0
CREATION_DATE  = 
ORIGINATOR     = 

OBJECT_NAME    = SL-3 R/B
OBJECT_ID      = 1983-010B
CENTER_NAME    = EARTH
REF_FRAME      = TEME
TIME_SYSTEM    = UTC
MEAN_ELEMENT_THEORY = SGP/SGP4

EPOCH          = 2026-02-03T12:22:51.851424
MEAN_MOTION    = 15.45145141
ECCENTRICITY   = .0017532
INCLINATION    = 81.1014
RA_OF_ASC_NODE = 44.1085
ARG_OF_PERICENTER = 160.5521
MEAN_ANOMALY   = 199.6396

EPHEMERIS_TYPE = 0
CLASSIFICATION_TYPE = U
NORAD_CAT_ID   = 13819
ELEMENT_SET_NO = 999
REV_AT_EPOCH   = 35266
BSTAR          = .30772273E-3
MEAN_MOTION_DOT = .147E-3
MEAN_MOTION_DDOT = 0

CCSDS_OMM_VERS = 2.0
CREATION_DATE  = 
ORIGINATOR     = 

OBJECT_NAME    = SL-3 R/B
OBJECT_ID      = 1983-075B
CENTER_NAME    = EARTH
REF_FRAME      = TEME
TIME_SYSTEM    = UTC
MEAN_ELEMENT_THEORY = SGP/SGP4

EPOCH          = 2026-02-03T11:08:05.787168
MEAN_MOTION    = 15.37512035
ECCENTRICITY   = .0021901
INCLINATION    = 97.6122
RA_OF_ASC_NODE = 37.7749
ARG_OF_PERICENTER = 357.9340
MEAN_ANOMALY   = 2.1809

EPHEMERIS_TYPE = 0
CLASSIFICATION_TYPE = U
NORAD_CAT_ID   = 14208
ELEMENT_SET_NO = 999
REV_AT_EPOCH   = 32489
BSTAR          = .35619898E-3
MEAN_MOTION_DOT = .13131E-3
MEAN_MOTION_DDOT = 0

CCSDS_OMM_VERS = 2.0
CREATION_DATE  = 
ORIGINATOR     = 

OBJECT_NAME    = COSMOS 1536
OBJECT_ID      = 1984-013A
CENTER_NAME    = EARTH
REF_FRAME      = TEME
TIME_SYSTEM    = UTC
MEAN_ELEMENT_THEORY = SGP/SGP4

EPOCH          = 2026-02-03T07:19:44.502816
MEAN_MOTION    = 15.23351625
ECCENTRICITY   = .00152526
INCLINATION    = 82.5478
RA_OF_ASC_NODE = 142.0083
ARG_OF_PERICENTER = 47.9462
MEAN_ANOMALY   = 312.3069

EPHEMERIS_TYPE = 0
CLASSIFICATION_TYPE = U
NORAD_CAT_ID   = 14699
ELEMENT_SET_NO = 999
REV_AT_EPOCH   = 26738
BSTAR          = .34677425E-3
MEAN_MOTION_DOT = .8297E-4
MEAN_MOTION_DDOT = 0

CCSDS_OMM_VERS = 2.0
CREATION_DATE  = 
ORIGINATOR     = 

OBJECT_NAME    = SL-14 R/B
OBJECT_ID      = 1984-027B
CENTER_NAME    = EARTH
REF_FRAME      = TEME
TIME_SYSTEM    = UTC
MEAN_ELEMENT_THEORY = SGP/SGP4

EPOCH          = 2026-02-03T08:24:56.934144
MEAN_MOTION    = 14.85941923
ECCENTRICITY   = .00195485
INCLINATION    = 82.5408
RA_OF_ASC_NODE = 277.2248
ARG_OF_PERICENTER = 87.3646
MEAN_ANOMALY   = 272.9808

EPHEMERIS_TYPE = 0
CLASSIFICATION_TYPE = U
NORAD_CAT_ID   = 14820
ELEMENT_SET_NO = 999
REV_AT_EPOCH   = 24253
BSTAR          = .55818277E-4
MEAN_MOTION_DOT = .513E-5
MEAN_MOTION_DDOT = 0

CCSDS_OMM_VERS = 2.0
CREATION_DATE  = 
ORIGINATOR     = 

OBJECT_NAME    = SL-8 R/B
OBJECT_ID      = 1985-006B
CENTER_NAME    = EARTH
REF_FRAME      = TEME
TIME_SYSTEM    = UTC
MEAN_ELEMENT_THEORY = SGP/SGP4

EPOCH          = 2026-02-03T14:03:01.647936
MEAN_MOTION    = 14.37765058
ECCENTRICITY   = .00196012
INCLINATION    = 74.0475
RA_OF_ASC_NODE = 323.9015
ARG_OF_PERICENTER = 248.0951
MEAN_ANOMALY   = 285.1513

EPHEMERIS_TYPE = 0
CLASSIFICATION_TYPE = U
NORAD_CAT_ID   = 15483
ELEMENT_SET_NO = 999
REV_AT_EPOCH   = 14912
BSTAR          = .11109102E-3
MEAN_MOTION_DOT = .309E-5
MEAN_MOTION_DDOT = 0

CCSDS_OMM_VERS = 2.0
CREATION_DATE  = 
ORIGINATOR     = 

OBJECT_NAME    = SL-12 R/B(2)
OBJECT_ID      = 1985-042D
CENTER_NAME    = EARTH
REF_FRAME      = TEME
TIME_SYSTEM    = UTC
MEAN_ELEMENT_THEORY = SGP/SGP4

EPOCH          = 2026-02-03T12:11:27.181536
MEAN_MOTION    = 14.21971951
ECCENTRICITY   = .00352677
INCLINATION    = 71.1083
RA_OF_ASC_NODE = 159.9427
ARG_OF_PERICENTER = 182.5646
MEAN_ANOMALY   = 248.4146

EPHEMERIS_TYPE = 0
CLASSIFICATION_TYPE = U
NORAD_CAT_ID   = 15772
ELEMENT_SET_NO = 999
REV_AT_EPOCH   = 10953
BSTAR          = .59511305E-4
MEAN_MOTION_DOT = .85E-6
MEAN_MOTION_DDOT = 0

CCSDS_OMM_VERS = 2.0
CREATION_DATE  = 
ORIGINATOR     = 

OBJECT_NAME    = SL-14 R/B
OBJECT_ID      = 1985-069B
CENTER_NAME    = EARTH
REF_FRAME      = TEME
TIME_SYSTEM    = UTC
MEAN_ELEMENT_THEORY = SGP/SGP4

EPOCH          = 2026-02-03T11:31:52.851648
MEAN_MOTION    = 14.86391777
ECCENTRICITY   = .00175306
INCLINATION    = 82.5239
RA_OF_ASC_NODE = 57.1090
ARG_OF_PERICENTER = 308.9484
MEAN_ANOMALY   = 51.0169

EPHEMERIS_TYPE = 0
CLASSIFICATION_TYPE = U
NORAD_CAT_ID   = 15945
ELEMENT_SET_NO = 999
REV_AT_EPOCH   = 16775
BSTAR          = .58167119E-4
MEAN_MOTION_DOT = .538E-5
MEAN_MOTION_DDOT = 0

CCSDS_OMM_VERS = 2.0
CREATION_DATE  = 
ORIGINATOR     = 

OBJECT_NAME    = SL-16 R/B
OBJECT_ID      = 1985-097B
CENTER_NAME    = EARTH
REF_FRAME      = TEME
TIME_SYSTEM    = UTC
MEAN_ELEMENT_THEORY = SGP/SGP4

EPOCH          = 2026-02-03T12:39:02.844864
MEAN_MOTION    = 14.16595301
ECCENTRICITY   = .00093727
INCLINATION    = 71.0012
RA_OF_ASC_NODE = 212.4716
ARG_OF_PERICENTER = 299.8218
MEAN_ANOMALY   = 119.0705

EPHEMERIS_TYPE = 0
CLASSIFICATION_TYPE = U
NORAD_CAT_ID   = 16182
ELEMENT_SET_NO = 999
REV_AT_EPOCH   = 8239
BSTAR          = .11243977E-3
MEAN_MOTION_DOT = .176E-5
MEAN_MOTION_DDOT = 0

CCSDS_OMM_VERS = 2.0
CREATION_DATE  = 
ORIGINATOR     = 

OBJECT_NAME    = SL-14 R/B
OBJECT_ID      = 1986-006B
CENTER_NAME    = EARTH
REF_FRAME      = TEME
TIME_SYSTEM    = UTC
MEAN_ELEMENT_THEORY = SGP/SGP4

EPOCH          = 2026-02-03T16:02:30.972192
MEAN_MOTION    = 14.86765948
ECCENTRICITY   = .00773898
INCLINATION    = 82.5276
RA_OF_ASC_NODE = 291.7577
ARG_OF_PERICENTER = 26.5518
MEAN_ANOMALY   = 333.9629

EPHEMERIS_TYPE = 0
CLASSIFICATION_TYPE = U
NORAD_CAT_ID   = 16496
ELEMENT_SET_NO = 999
REV_AT_EPOCH   = 14415
BSTAR          = .94387056E-4
MEAN_MOTION_DOT = .914E-5
MEAN_MOTION_DDOT = 0

CCSDS_OMM_VERS = 2.0
CREATION_DATE  = 
ORIGINATOR     = 

OBJECT_NAME    = COSMOS 1743
OBJECT_ID      = 1986-034A
CENTER_NAME    = EARTH
REF_FRAME      = TEME
TIME_SYSTEM    = UTC
MEAN_ELEMENT_THEORY = SGP/SGP4

EPOCH          = 2026-02-03T14:03:33.920928
MEAN_MOTION    = 15.56059484
ECCENTRICITY   = .00052771
INCLINATION    = 82.5336
RA_OF_ASC_NODE = 109.5515
ARG_OF_PERICENTER = 65.7981
MEAN_ANOMALY   = 294.3825

EPHEMERIS_TYPE = 0
CLASSIFICATION_TYPE = U
NORAD_CAT_ID   = 16719
ELEMENT_SET_NO = 999
REV_AT_EPOCH   = 17494
BSTAR          = .54443744E-3
MEAN_MOTION_DOT = .38107E-3
MEAN_MOTION_DDOT = 0

